[{"OBJECT_NAME":"SDA_1672","OBJECT_ID":"2025-230J","EPOCH":"2026-03-09T22:13:49.529280","MEAN_MOTION":13.84978873,"ECCENTRICITY":0.000446,"INCLINATION":81.3012,"RA_OF_ASC_NODE":303.7625,"ARG_OF_PERICENTER":83.2945,"MEAN_ANOMALY":276.872,"EPHEMERIS_TYPE":0,"CLASSIFICATION_TYPE":"U","NORAD_CAT_ID":65982,"ELEMENT_SET_NO":999,"REV_AT_EPOCH":2007,"BSTAR":0.0002038919,"MEAN_MOTION_DOT":2.42e-6,"MEAN_MOTION_DDOT":0},{"OBJECT_NAME":"THORAD AGENA D DEB","OBJECT_ID":"1970-025F","EPOCH":"2026-03-09T06:54:25.600320","MEAN_MOTION":13.87606836,"ECCENTRICITY":0.00228491,"INCLINATION":99.4976,"RA_OF_ASC_NODE":172.1438,"ARG_OF_PERICENTER":157.1989,"MEAN_ANOMALY":221.1973,"EPHEMERIS_TYPE":0,"CLASSIFICATION_TYPE":"U","NORAD_CAT_ID":4603,"ELEMENT_SET_NO":999,"REV_AT_EPOCH":77895,"BSTAR":0.001986441,"MEAN_MOTION_DOT":2.309e-5,"MEAN_MOTION_DDOT":0}]
